{
    "links": {
        "self": "http://www.neowsapp.com/rest/v1/neo/3789412?api_key=iIulBulltgU6a56xZRHN4H3l9WmuAYTsLGpBGhQ2"
    },
    "id": "3789412",
    "neo_reference_id": "3789412",
    "name": "(2017 VQ14)",
    "designation": "2017 VQ14",
    "nasa_jpl_url": "http://ssd.jpl.nasa.gov/sbdb.cgi?sstr=3789412",
    "absolute_magnitude_h": 25.8,
    "estimated_diameter": {
        "kilometers": {
            "estimated_diameter_min": 0.0183888672,
            "estimated_diameter_max": 0.0411187571
        },
        "meters": {
            "estimated_diameter_min": 18.388867207,
            "estimated_diameter_max": 41.1187571041
        },
        "miles": {
            "estimated_diameter_min": 0.0114263088,
            "estimated_diameter_max": 0.0255500032
        },
        "feet": {
            "estimated_diameter_min": 60.3309310875,
            "estimated_diameter_max": 134.9040630575
        }
    },
    "is_potentially_hazardous_asteroid": false,
    "close_approach_data": [
        {
            "close_approach_date": "2017-11-29",
            "close_approach_date_full": "2017-Nov-29 14:00",
            "epoch_date_close_approach": 1511964000000,
            "relative_velocity": {
                "kilometers_per_second": "6.090705302",
                "kilometers_per_hour": "21926.5390871548",
                "miles_per_hour": "13624.2986900157"
            },
            "miss_distance": {
                "astronomical": "0.0800356961",
                "lunar": "31.1338857829",
                "kilometers": "11973169.660527307",
                "miles": "7439782.6397465566"
            },
            "orbiting_body": "Earth"
        }
    ],
    "orbital_data": {
        "orbit_id": "3",
        "orbit_determination_date": "2018-02-10 07:09:22",
        "first_observation_date": "2017-11-13",
        "last_observation_date": "2017-11-24",
        "data_arc_in_days": 11,
        "observations_used": 14,
        "orbit_uncertainty": "8",
        "minimum_orbit_intersection": ".0771991",
        "jupiter_tisserand_invariant": "4.091",
        "epoch_osculation": "2458072.5",
        "eccentricity": ".3854214529131907",
        "semi_major_axis": "1.70914078662661",
        "inclination": "8.486439824259159",
        "ascending_node_longitude": "234.2309132914224",
        "orbital_period": "816.1409782093313",
        "perihelion_distance": "1.050401261411788",
        "perihelion_argument": "204.4305945426434",
        "aphelion_distance": "2.367880311841431",
        "perihelion_time": "2458098.584350814347",
        "mean_anomaly": "348.4941859998648",
        "mean_motion": ".4411002628367767",
        "equinox": "J2000",
        "orbit_class": {
            "orbit_class_type": "AMO",
            "orbit_class_description": "Near-Earth asteroid orbits similar to that of 1221 Amor",
            "orbit_class_range": "1.017 AU < q (perihelion) < 1.3 AU"
        }
    },
    "is_sentry_object": false
}